SL-3 R/B                
1 19046U 88032B   18030.92466417  .00000391  00000-0  33696-4 0  9996
2 19046  97.5018  75.8708 0036158 277.4708  82.2410 15.02384067606549
SL-16 R/B               
1 19120U 88039B   18030.89829376 -.00000172  00000-0 -59166-4 0  9998
2 19120  71.0131 203.7759 0022925 204.4764 155.5274 14.19181140538429
COSMOS 1953             
1 19210U 88050A   18030.88813853 -.00000035  00000-0 -44718-5 0  9999
2 19210  82.5186 172.5852 0013241 197.8145 162.2620 15.05492442612094
SL-8 R/B                
1 19257U 88053B   18031.50097451 -.00000037  00000-0 -35218-5 0  9998
2 19257  74.0494 156.8006 0020728 347.8849  81.4647 14.37389408551572
COSMOS 1975             
1 19573U 88093A   18030.76538034 -.00000077  00000-0 -75689-5 0  9997
2 19573  82.5216 125.2771 0013098 239.3965 120.5970 15.04389367594024
SL-14 R/B               
1 19574U 88093B   18030.82120258  .00000074  00000-0  60836-5 0  9993
2 19574  82.5331 292.2374 0023220  86.3683 338.2135 14.83252216562105
SL-16 R/B               
1 19650U 88102B   18031.08132759  .00000170  00000-0  11062-3 0  9999
2 19650  70.9970 255.8960 0015221 203.9592 156.0824 14.15766268508242
INTERCOSMOS 24          
1 20261U 89080A   18031.49165267 -.00000001  00000-0 -10364-5 0  9991
2 20261  82.5941 222.0513 1203167 290.2701  57.3189 12.55953787294626
SL-14 R/B               
1 20262U 89080C   18030.70609711  .00000115  00000-0  24725-4 0  9991
2 20262  82.5924 270.3648 1238078  97.8901 276.4202 12.48883549290542
DELTA 1 R/B             
1 20323U 89089B   18030.77900987  .00000044  00000-0  20426-4 0  9999
2 20323  97.1243 305.9287 0073355  84.9522 276.0043 14.48239977467132
DELTA 2 R/B(1)          
1 20453U 90008B   18031.27068936  .00000660  00000-0  39619-4 0  9999
2 20453  35.6274 329.5046 0287813 266.3075  90.4687 14.83845104482095
COSMOS 2058             
1 20465U 90010A   18030.92675026  .00000288  00000-0  22308-4 0  9993
2 20465  82.4882  28.8673 0014042 245.3456 114.6305 14.97665252498317
SL-14 R/B               
1 20466U 90010B   18030.81488816  .00000063  00000-0  50890-5 0  9990
2 20466  82.5050 159.6245 0019382 313.7730  46.1879 14.81312354511193
SL-14 R/B               
1 20511U 90018B   18031.16041233  .00000063  00000-0  51479-5 0  9990
2 20511  82.5231 101.8206 0019044  86.1949 332.5522 14.79970049505782
HST                     
1 20580U 90037B   18030.22849853  .00000460  00000-0  17272-4 0  9990
2 20580  28.4699 307.0481 0002904  96.8879  36.2352 15.08971392324612
SL-16 R/B               
1 20625U 90046B   18031.39367828  .00000159  00000-0  10760-3 0  9995
2 20625  70.9986  30.1753 0012571 126.5556 233.6726 14.14622447430114
COSMOS 2084             
1 20663U 90055A   18031.55473525  .00000056  00000-0  22724-4 0  9997
2 20663  62.7913 185.8122 0133342 112.4216 249.1065 14.91765629493875
SL-6 R/B(2)             
1 20666U 90055D   18030.56007718 -.00000049  00000-0  13998-4 0  9993
2 20666  62.7849 107.3801 0112776 132.1848 228.8890 14.92079858495108
SL-8 R/B                
1 20775U 90078B   18030.94502843  .00001205  00000-0  58360-4 0  9996
2 20775  82.9266 221.3408 0584394   0.2239 359.9097 14.31661489381350
SL-8 R/B                
1 21088U 91006B   18030.92760994 -.00000067  00000-0 -83073-4 0  9993
2 21088  82.9409 210.9262 0023335  45.0242  62.0811 13.77077586356674
OKEAN-3                 
1 21397U 91039A   18031.19767483  .00000220  00000-0  18841-4 0  9992
2 21397  82.5221 281.8033 0017502 190.0820 170.0051 14.92619321443793
COSMOS 2151             
1 21422U 91042A   18031.51090995  .00000159  00000-0  13235-4 0  9991
2 21422  82.4992  29.1586 0012661 250.1885 109.7970 14.91920672442546
SL-14 R/B               
1 21423U 91042B   18031.15189630  .00000095  00000-0  95475-5 0  9993
2 21423  82.4944 108.3959 0016656 219.9138 140.0851 14.79721890436298
ERS-1                   
1 21574U 91050A   18030.85709496  .00000002  00000-0  15126-4 0  9995
2 21574  98.4887 339.7212 0033037 357.5063   2.5954 14.37629132390293
ARIANE 40 R/B           
1 21610U 91050F   18031.15710828 -.00000008  00000-0  11629-4 0  9992
2 21610  98.5748  93.7387 0002885   2.7737  22.1100 14.40826704392948
INTERCOSMOS 25          
1 21819U 91086A   18030.93321225  .00000655  00000-0  13010-3 0  9998
2 21819  82.5800 286.2591 1520549 322.3515  27.9986 12.04776346139684
SL-14 R/B               
1 21820U 91086B   18030.88934509  .00000050  00000-0  41273-5 0  9992
2 21820  82.5641 344.1442 1577128 159.2358 208.0895 11.93359977133943
SL-8 R/B                
1 21876U 92008B   18030.85276606  .00000030  00000-0  15087-4 0  9993
2 21876  82.9287 307.9983 0035942 117.5087 305.9365 13.75619673302456
SL-8 R/B                
1 21938U 92020B   18031.01014588  .00000123  00000-0  11238-3 0  9990
2 21938  82.9299 191.3215 0028004 276.6362 202.7534 13.75264789294608
SL-16 R/B               
1 22220U 92076B   18031.24108133  .00000215  00000-0  13200-3 0  9994
2 22220  71.0005 299.2029 0015063 282.8408 239.4965 14.16425139303069
SL-16 R/B               
1 22285U 92093B   18031.14533049  .00000128  00000-0  90490-4 0  9991
2 22285  71.0213  94.0821 0003441 172.0168 188.1010 14.15016200294785
COSMOS 2228             
1 22286U 92094A   18031.44789075  .00000145  00000-0  12962-4 0  9995
2 22286  82.5220 158.8415 0022732  84.7007 275.6803 14.87900480356438
SL-16 R/B               
1 22566U 93016B   18031.19780713 -.00000235  00000-0 -96705-4 0  9992
2 22566  71.0089 308.3116 0009162 160.0049 200.1434 14.14956929283522
COSMOS 2242             
1 22626U 93024A   18030.94074442  .00000162  00000-0  14915-4 0  9995
2 22626  82.5221 187.0885 0020458  85.6196 274.7358 14.87764901339717
SL-16 R/B               
1 22803U 93059B   18030.71059046 -.00000175  00000-0 -63458-4 0  9990
2 22803  70.9913 129.9923 0015873  32.2316 327.9775 14.16786107260506
ARIANE 40 R/B           
1 22830U 93061H   18029.46975910 -.00000054  00000-0 -27310-5 0  9994
2 22830  98.8713  54.8888 0010698 352.5724   7.5298 14.31414090270610
COSMOS 2278             
1 23087U 94023A   18030.89233691  .00000097  00000-0  76229-4 0  9997
2 23087  71.0527 243.0610 0010605 235.8483 124.1634 14.13767502226675
SL-16 R/B               
1 23088U 94023B   18031.52331995  .00000083  00000-0  67992-4 0  9997
2 23088  71.0009 162.8103 0001451 150.5565 209.5639 14.14668627227830
SL-16 R/B               
1 23343U 94074B   18031.56493652 -.00000013  00000-0  56633-5 0  9995
2 23343  98.1248  75.5453 0008082  65.5992  56.5852 14.76722706250530
SL-16 R/B               
1 23405U 94077B   18030.59222686 -.00000219  00000-0 -88050-4 0  9992
2 23405  70.9818  97.2818 0004142 304.1082  55.9648 14.15195110197432
ERS-2                   
1 23560U 95021A   18030.91032632  .00000904  00000-0  44157-4 0  9999
2 23560  98.5526  59.0359 0002467 240.9859 119.1126 15.21460997209972
ARIANE 40+ R/B          
1 23561U 95021B   18031.53813802  .00000015  00000-0  20492-4 0  9994
2 23561  98.7960  43.0382 0006128 309.7669 202.7078 14.37856099194063
SL-16 R/B               
1 23705U 95058B   18030.92257396  .00000188  00000-0  12108-3 0  9991
2 23705  71.0207 271.2313 0014151 304.7638  55.2152 14.15106146149102
SL-16 R/B               
1 24298U 96051B   18031.18522119 -.00000143  00000-0 -51118-4 0  9998
2 24298  70.8439 301.5915 0017680 210.0468 149.9639 14.12468879104012
ORBVIEW 2 (SEASTAR)     
1 24883U 97037A   18030.88657198  .00000014  00000-0  20822-4 0  9998
2 24883  98.5522 141.7036 0003139 136.8008 223.3423 14.33434336 84524
SL-16 R/B               
1 25400U 98043G   18030.85601813 -.00000024  00000-0  80335-5 0  9990
2 25400  98.5185 337.1296 0009790 357.0279   3.0842 14.25428119 17505
SL-16 R/B               
1 25407U 98045B   18030.94027706  .00000254  00000-0  15369-3 0  9999
2 25407  71.0115 282.8138 0009442 229.8802 130.1495 14.15771500  8155
ISS (ZARYA)             
1 25544U 98067A   18030.93057008  .00011045  00000-0  17452-3 0  9997
2 25544  51.6392 342.9681 0002977  45.8872  32.8379 15.54020911 97174
SL-8 R/B                
1 25723U 99022C   18030.81748821  .00005920  00000-0  84257-4 0  9998
2 25723  48.4158  30.4732 0008922  47.6861 312.4840 15.57739179 41622
CZ-4B R/B               
1 25732U 99025C   18031.51380043 -.00000017  00000-0  13880-4 0  9994
2 25732  98.9958  41.0743 0037720 160.2416 311.9268 14.17644174968986
OKEAN-O                 
1 25860U 99039A   18030.97937318  .00000030  00000-0  11885-4 0  9990
2 25860  98.2074  24.2440 0001772 100.1407 260.0002 14.76528729997443
SL-16 R/B               
1 25861U 99039B   18030.91300773  .00000017  00000-0  97825-5 0  9998
2 25861  98.1358   9.1493 0016985  70.4833 342.5662 14.78459036999314
TERRA                   
1 25994U 99068A   18031.18772220 -.00000118  00000-0 -16061-4 0  9993
2 25994  98.2096 107.9895 0001286  84.2500 275.8895 14.57109310963878
ENVISAT                 
1 27386U 02009A   18031.48931489 -.00000019  00000-0  73103-5 0  9996
2 27386  98.2026  71.8658 0001385  82.1223 278.0127 14.37914136833881
IDEFIX & ARIANE 42P R/B 
1 27422U 02021B   18029.98130317 -.00000041  00000-0 -21092-6 0  9991
2 27422  98.2446  22.8646 0011132 286.4464  73.5496 14.29260096819070
AQUA                    
1 27424U 02022A   18030.94506880  .00000093  00000-0  30741-4 0  9998
2 27424  98.2294 334.1009 0002314 103.6573 321.6079 14.57100606837398
CZ-4B R/B               
1 27432U 02024C   18030.94038612 -.00000025  00000-0  10694-4 0  9993
2 27432  99.0183  11.1509 0051416 107.9400 310.1049 14.14057842810907
MIDORI II (ADEOS-II)    
1 27597U 02056A   18030.88346430  .00000024  00000-0  26980-4 0  9996
2 27597  98.4027 356.1513 0001849  55.7085 304.4271 14.27332742787905
H-2A R/B                
1 27601U 02056E   18030.80912115  .00000035  00000-0  27983-4 0  9999
2 27601  98.3481  95.4039 0071644 341.1771 127.6234 14.31821909790387
